NORAD_CAT_ID,OBJECT_NAME,OBJECT_TYPE,EPOCH,MEAN_MOTION,ECCENTRICITY,INCLINATION,RA_OF_ASC_NODE,ARG_OF_PERICENTER,MEAN_ANOMALY,BSTAR,MEAN_MOTION_DOT,MEAN_MOTION_DDOT,TLE_LINE0,TLE_LINE1,TLE_LINE2,SEMIMAJOR_AXIS,PERIOD,APOGEE,PERIGEE,DECAYED
53569.0,STARLINK-4582,PAYLOAD,2023-05-21 19:16:06,15.08833345,0.0001086,53.2148,326.0676,88.5241,271.5876,-1.9107e-05,-5.92e-06,0.0,0 STARLINK-4582,1 53569U 22101AU  23141.80284815 -.00000592  00000-0 -19107-4 0  9991,2 53569  53.2148 326.0676 0001086  88.5241 271.5876 15.08833345 42020,6917.901,95.438,540.517,539.014,0.0
53569.0,STARLINK-4582,PAYLOAD,2023-05-22 12:45:20,15.0884284,9.96e-05,53.2153,322.7966,85.611,274.4996,0.00013108,1.799e-05,0.0,0 STARLINK-4582,1 53569U 22101AU  23142.53148603  .00001799  00000-0  13108-3 0  9998,2 53569  53.2153 322.7966 0000996  85.6110 274.4996 15.08842840 42804,6917.872,95.437,540.426,539.048,0.0
53569.0,STARLINK-4582,PAYLOAD,2023-05-22 19:06:52,15.08852142,0.0001033,53.2152,321.6076,88.3077,271.8033,0.000389,5.911e-05,0.0,0 STARLINK-4582,1 53569U 22101AU  23142.79644343  .00005911  00000-0  38900-3 0  9995,2 53569  53.2152 321.6076 0001033  88.3077 271.8033 15.08852142 42177,6917.843,95.437,540.423,538.994,0.0
53569.0,STARLINK-4582,PAYLOAD,2023-05-23 03:03:48,15.08827979,0.0001157,53.2154,320.1199,91.5506,268.5619,-7.8253e-05,-1.533e-05,0.0,0 STARLINK-4582,1 53569U 22101AU  23143.12764985 -.00001533  00000-0 -78253-4 0  9992,2 53569  53.2154 320.1199 0001157  91.5506 268.5619 15.08827979 42228,6917.917,95.438,540.583,538.982,0.0
53569.0,STARLINK-4582,PAYLOAD,2023-05-23 17:22:16,15.08842625,0.0001021,53.2156,317.4439,99.0759,261.0349,0.00027724,4.128e-05,0.0,0 STARLINK-4582,1 53569U 22101AU  23143.72380694  .00004128  00000-0  27724-3 0  9996,2 53569  53.2156 317.4439 0001021  99.0759 261.0349 15.08842625 42312,6917.872,95.437,540.444,539.031,0.0
53569.0,STARLINK-4582,PAYLOAD,2023-05-23 22:08:26,15.08846613,9.89e-05,53.2156,316.5518,100.6734,259.4369,0.00056986,8.795e-05,0.0,0 STARLINK-4582,1 53569U 22101AU  23143.92252683  .00008795  00000-0  56986-3 0  9990,2 53569  53.2156 316.5518 0000989 100.6734 259.4369 15.08846613 43016,6917.86,95.437,540.409,539.041,0.0
53569.0,STARLINK-4582,PAYLOAD,2023-05-24 02:54:36,15.08834141,9.76e-05,53.2154,315.6595,89.5523,270.5581,0.00020459,2.969e-05,0.0,0 STARLINK-4582,1 53569U 22101AU  23144.12125013  .00002969  00000-0  20459-3 0  9992,2 53569  53.2154 315.6595 0000976  89.5523 270.5581 15.08834141 42377,6917.898,95.438,540.438,539.088,0.0
53569.0,STARLINK-4582,PAYLOAD,2023-05-24 15:37:41,15.0884415,9.58e-05,53.2153,313.2807,95.8383,264.2719,0.00063801,9.882e-05,0.0,0 STARLINK-4582,1 53569U 22101AU  23144.65117099  .00009882  00000-0  63801-3 0  9994,2 53569  53.2153 313.2807 0000958  95.8383 264.2719 15.08844150 43128,6917.868,95.437,540.395,539.07,0.0
53569.0,STARLINK-4582,PAYLOAD,2023-05-25 18:39:14,15.08852006,8.8e-05,53.2153,308.2256,88.7482,271.361,0.00062741,9.715e-05,0.0,0 STARLINK-4582,1 53569U 22101AU  23145.77724929  .00009715  00000-0  62741-3 0  9991,2 53569  53.2153 308.2256 0000880  88.7482 271.3610 15.08852006 42627,6917.844,95.437,540.317,539.1,0.0
53569.0,STARLINK-4582,PAYLOAD,2023-05-25 20:14:37,15.08853095,9.51e-05,53.2151,307.9279,88.5084,271.6017,0.00062477,9.673e-05,0.0,0 STARLINK-4582,1 53569U 22101AU  23145.84348881  .00009673  00000-0  62477-3 0  9997,2 53569  53.2151 307.9279 0000951  88.5084 271.6017 15.08853095 43300,6917.84,95.437,540.363,539.047,0.0
53569.0,STARLINK-4582,PAYLOAD,2023-05-26 16:54:38,15.08840798,0.0001085,53.2151,304.0616,86.0675,274.0441,0.00011298,1.511e-05,0.0,0 STARLINK-4582,1 53569U 22101AU  23146.70461127  .00001511  00000-0  11298-3 0  9990,2 53569  53.2151 304.0616 0001085  86.0675 274.0441 15.08840798 42764,6917.878,95.438,540.494,538.992,0.0
53569.0,STARLINK-4582,PAYLOAD,2023-05-26 20:05:24,15.08844367,0.0001097,53.2153,303.4664,90.493,269.6188,0.00017256,2.46e-05,0.0,0 STARLINK-4582,1 53569U 22101AU  23146.83709066  .00002460  00000-0  17256-3 0  9995,2 53569  53.2153 303.4664 0001097  90.4930 269.6188 15.08844367 43459,6917.867,95.437,540.491,538.973,0.0
53569.0,STARLINK-4582,PAYLOAD,2023-05-27 10:23:53,15.08837196,8.61e-05,53.2157,300.7881,109.7081,250.4004,5.1427e-05,5.31e-06,0.0,0 STARLINK-4582,1 53569U 22101AU  23147.43325338  .00000531  00000-0  51427-4 0  9994,2 53569  53.2157 300.7881 0000861 109.7081 250.4004 15.08837196 42875,6917.889,95.438,540.35,539.158,0.0
53569.0,STARLINK-4582,PAYLOAD,2023-05-27 16:45:25,15.08840141,8.98e-05,53.2151,299.6007,89.6875,270.422,8.6876e-05,1.095e-05,0.0,0 STARLINK-4582,1 53569U 22101AU  23147.69821267  .00001095  00000-0  86876-4 0  9996,2 53569  53.2151 299.6007 0000898  89.6875 270.4220 15.08840141 43587,6917.88,95.438,540.366,539.124,0.0
53569.0,STARLINK-4582,PAYLOAD,2023-05-28 16:36:12,15.08847453,9.71e-05,53.2148,295.1421,82.5881,277.5222,0.000206,2.993e-05,0.0,0 STARLINK-4582,1 53569U 22101AU  23148.69180983  .00002993  00000-0  20600-3 0  9990,2 53569  53.2148 295.1421 0000971  82.5881 277.5222 15.08847453 43061,6917.858,95.437,540.394,539.051,0.0
53569.0,STARLINK-4582,PAYLOAD,2023-05-29 10:05:27,15.08837699,9.91e-05,53.2146,291.8709,81.097,279.0134,5.6687e-05,6.14e-06,0.0,0 STARLINK-4582,1 53569U 22101AU  23149.42045376  .00000614  00000-0  56687-4 0  9991,2 53569  53.2146 291.8709 0000991  81.0970 279.0134 15.08837699 43178,6917.887,95.438,540.438,539.067,0.0
53569.0,STARLINK-4582,PAYLOAD,2023-05-29 14:51:36,15.0883894,9.68e-05,53.2157,290.9788,82.4155,277.6947,9.79e-05,1.271e-05,0.0,0 STARLINK-4582,1 53569U 22101AU  23149.61917369  .00001271  00000-0  97900-4 0  9995,2 53569  53.2157 290.9788 0000968  82.4155 277.6947 15.08838940 43874,6917.884,95.438,540.418,539.079,0.0
53569.0,STARLINK-4582,PAYLOAD,2023-05-29 16:26:59,15.0884182,9.59e-05,53.2157,290.6815,82.5321,277.578,0.00011923,1.61e-05,0.0,0 STARLINK-4582,1 53569U 22101AU  23149.68541121  .00001610  00000-0  11923-3 0  9998,2 53569  53.2157 290.6815 0000959  82.5321 277.5780 15.08841820 43884,6917.875,95.437,540.403,539.076,0.0
53569.0,STARLINK-4582,PAYLOAD,2023-05-30 09:56:14,15.0883747,9.02e-05,53.2155,287.412,94.6362,265.4733,8.7975e-06,-1.48e-06,0.0,0 STARLINK-4582,1 53569U 22101AU  23150.41405690 -.00000148  00000-0  87975-5 0  9999,2 53569  53.2155 287.4120 0000902  94.6362 265.4733 15.08837470 43994,6917.888,95.438,540.377,539.129,0.0
53569.0,STARLINK-4582,PAYLOAD,2023-05-30 14:42:23,15.08840795,9.51e-05,53.2163,286.5208,79.2545,280.8554,3.3138e-05,2.4e-06,0.0,0 STARLINK-4582,1 53569U 22101AU  23150.61277461  .00000240  00000-0  33138-4 0  9997,2 53569  53.2163 286.5208 0000951  79.2545 280.8554 15.08840795 43352,6917.878,95.438,540.401,539.085,0.0
53569.0,STARLINK-4582,PAYLOAD,2023-05-31 12:57:47,15.08842435,9.78e-05,53.2168,282.3584,106.4678,253.6422,9.7409e-05,1.263e-05,0.0,0 STARLINK-4582,1 53569U 22101AU  23151.54013191  .00001263  00000-0  97409-4 0  9995,2 53569  53.2168 282.3584 0000978 106.4678 253.6422 15.08842435 44162,6917.873,95.437,540.415,539.061,0.0
53569.0,STARLINK-4582,PAYLOAD,2023-05-31 17:43:56,15.08849493,0.000101,53.2167,281.4663,105.6162,254.4942,0.00013862,1.92e-05,0.0,0 STARLINK-4582,1 53569U 22101AU  23151.73884606  .00001920  00000-0  13862-3 0  9993,2 53569  53.2167 281.4663 0001010 105.6162 254.4942 15.08849493 43522,6917.851,95.437,540.415,539.018,0.0
53569.0,STARLINK-4582,PAYLOAD,2023-06-02 01:31:40,15.08838364,0.0001061,53.2165,275.5158,85.2349,274.8764,7.4241e-05,8.94e-06,0.0,0 STARLINK-4582,1 53569U 22101AU  23153.06365942  .00000894  00000-0  74241-4 0  9996,2 53569  53.2165 275.5158 0001061  85.2349 274.8764 15.08838364 43724,6917.885,95.438,540.484,539.016,0.0
53569.0,STARLINK-4582,PAYLOAD,2023-06-02 14:14:45,15.08839862,9.55e-05,53.2155,273.1353,85.2068,274.9034,2.0877e-05,4.5e-07,0.0,0 STARLINK-4582,1 53569U 22101AU  23153.59357835  .00000045  00000-0  20877-4 0  9990,2 53569  53.2155 273.1353 0000955  85.2068 274.9034 15.08839862 44471,6917.881,95.438,540.406,539.085,0.0
53569.0,STARLINK-4582,PAYLOAD,2023-06-03 14:05:32,15.08842234,9.3e-05,53.2153,268.675,86.1213,273.9886,0.00017111,2.437e-05,0.0,0 STARLINK-4582,1 53569U 22101AU  23154.58717929  .00002437  00000-0  17111-3 0  9997,2 53569  53.2153 268.6750 0000930  86.1213 273.9886 15.08842234 44622,6917.874,95.437,540.382,539.095,0.0
53569.0,STARLINK-4582,PAYLOAD,2023-06-04 10:45:33,15.08836356,8.43e-05,53.2161,264.8109,87.4817,272.6272,7.6341e-05,9.27e-06,0.0,0 STARLINK-4582,1 53569U 22101AU  23155.44830347  .00000927  00000-0  76341-4 0  9996,2 53569  53.2161 264.8109 0000843  87.4817 272.6272 15.08836356 44087,6917.892,95.438,540.34,539.173,0.0
53569.0,STARLINK-4582,PAYLOAD,2023-06-04 12:20:56,15.08837486,8.36e-05,53.2158,264.5127,91.8718,268.237,8.7087e-05,1.098e-05,0.0,0 STARLINK-4582,1 53569U 22101AU  23155.51454224  .00001098  00000-0  87087-4 0  9999,2 53569  53.2158 264.5127 0000836  91.8718 268.2370 15.08837486 44761,6917.888,95.438,540.331,539.175,0.0
53569.0,STARLINK-4582,PAYLOAD,2023-06-04 17:07:05,15.08843962,8.08e-05,53.2157,263.6197,101.4705,258.6378,0.00010119,1.323e-05,0.0,0 STARLINK-4582,1 53569U 22101AU  23155.71325737  .00001323  00000-0  10119-3 0  9999,2 53569  53.2157 263.6197 0000808 101.4705 258.6378 15.08843962 44127,6917.868,95.437,540.292,539.174,0.0
53569.0,STARLINK-4582,PAYLOAD,2023-06-05 13:47:05,15.08848327,8.78e-05,53.2148,259.7534,120.3047,239.8032,0.00019041,2.745e-05,0.0,0 STARLINK-4582,1 53569U 22101AU  23156.57437404  .00002745  00000-0  19041-3 0  9991,2 53569  53.2148 259.7534 0000878 120.3047 239.8032 15.08848327 44920,6917.855,95.437,540.327,539.113,0.0
53569.0,STARLINK-4582,PAYLOAD,2023-06-06 07:16:21,15.08831703,9.22e-05,53.2144,256.4829,92.9207,267.1891,-2.2513e-05,-6.46e-06,0.0,0 STARLINK-4582,1 53569U 22101AU  23157.30302266 -.00000646  00000-0 -22513-4 0  9999,2 53569  53.2144 256.4829 0000922  92.9207 267.1891 15.08831703 44364,6917.906,95.438,540.409,539.133,0.0
